{"type":"FeatureCollection","licence":"Data © OpenStreetMap contributors, ODbL 1.0. http://osm.org/copyright","features":[{"type":"Feature","properties":{"place_id":52406921,"osm_type":"relation","osm_id":6803636,"place_rank":17,"category":"place","type":"island","importance":0.6572605210074169,"addresstype":"island","name":"Mallorca","display_name":"Mallorca, Illes Balears, España"},"bbox":[2.3447252,39.2643359,3.4787522,39.9625085],"geometry":{"type":"Polygon","coordinates":[[[2.3447252,39.5871688],[2.3545193,39.5767068],[2.346498,39.5646828],[2.3553184,39.5631604],[2.3541168,39.5574944],[2.3662278,39.5550832],[2.3721905,39.5442363],[2.3905476,39.5462114],[2.3682232,39.5380163],[2.3639207,39.5314457],[2.3720895,39.5317475],[2.3770459,39.537522],[2.3795243,39.5329902],[2.3881262,39.5339515],[2.3874608,39.5207748],[2.4045256,39.5267498],[2.4053323,39.5364372],[2.4136046,39.5390958],[2.4238098,39.5368966],[2.4194449,39.5229283],[2.4523363,39.536683],[2.4684074,39.5223252],[2.4668147,39.5189471],[2.4795865,39.5181189],[2.4789477,39.513762],[2.4624323,39.5118733],[2.4562003,39.5047194],[2.4608208,39.504351],[2.4594914,39.498849],[2.4670262,39.4958309],[2.4680023,39.4902661],[2.4788932,39.4922173],[2.4763694,39.483301],[2.4820937,39.4760608],[2.4760909,39.4662595],[2.490509,39.4729065],[2.499878,39.4681414],[2.5011675,39.4611525],[2.5218183,39.4567108],[2.5243332,39.4607217],[2.5191551,39.4625981],[2.5240093,39.4718645],[2.5200848,39.47501],[2.5259854,39.4743947],[2.5255719,39.4789896],[2.5366027,39.4878958],[2.5347724,39.5062064],[2.5472597,39.5111581],[2.5391746,39.5132029],[2.5399087,39.5236242],[2.5521962,39.5247311],[2.5615749,39.5320136],[2.5904085,39.5310206],[2.6005357,39.5510654],[2.6080469,39.5520466],[2.6190156,39.5448749],[2.6324481,39.545133],[2.6394605,39.5503086],[2.6394433,39.5526183],[2.6296604,39.5456752],[2.6199006,39.5495717],[2.6331104,39.5528634],[2.6364515,39.5550751],[2.6244893,39.5545659],[2.6284774,39.5557631],[2.627065,39.5598113],[2.6299252,39.5568506],[2.6270936,39.5599017],[2.6318924,39.5681547],[2.6390056,39.5686585],[2.6334337,39.56727],[2.632696,39.5660037],[2.6339815,39.5646341],[2.6441279,39.5670745],[2.6342182,39.5590149],[2.6454,39.5656543],[2.6682633,39.5586973],[2.6671406,39.5604427],[2.6694208,39.5626462],[2.6692438,39.5588454],[2.6869862,39.5537628],[2.7111736,39.5335881],[2.7268825,39.5307561],[2.7492023,39.5094651],[2.7499777,39.5003962],[2.7371582,39.4926117],[2.7339903,39.4824941],[2.721873,39.4761009],[2.7472117,39.4414765],[2.7394073,39.4160482],[2.7419136,39.4063439],[2.7542617,39.3923378],[2.770864,39.3836442],[2.7873918,39.3630805],[2.8060546,39.3671822],[2.828781,39.3561498],[2.8443056,39.3659152],[2.8746843,39.362784],[2.8817756,39.3662002],[2.9136351,39.3522833],[2.9142248,39.3584808],[2.9289089,39.3642099],[2.9581705,39.3624436],[2.9901661,39.3378656],[2.9898837,39.3266749],[2.9839269,39.3233952],[2.9860007,39.3159785],[2.9933076,39.3121639],[3.003016,39.3174051],[3.0047831,39.3122144],[3.0136558,39.3104238],[3.0201146,39.3034748],[3.0181416,39.2948661],[3.025739,39.2877149],[3.0307254,39.289454],[3.030167,39.2824819],[3.0421615,39.2795718],[3.041593,39.2747527],[3.0556158,39.2643359],[3.0732889,39.2687765],[3.1181142,39.3131263],[3.1376721,39.3169378],[3.1463952,39.3300853],[3.1709528,39.3264947],[3.1738309,39.3280526],[3.1692972,39.3334681],[3.1769758,39.3292957],[3.1889899,39.3377042],[3.1922839,39.3462369],[3.1853041,39.3504174],[3.2153972,39.354947],[3.209273,39.3555641],[3.2109511,39.3647402],[3.2200037,39.3569169],[3.2321375,39.3616287],[3.2349189,39.3674483],[3.2289123,39.3661123],[3.2234433,39.3691154],[3.2220556,39.3728791],[3.2301912,39.3679698],[3.2329419,39.3730232],[3.2386782,39.3707127],[3.2393607,39.3795405],[3.2444683,39.377594],[3.2489969,39.3850185],[3.2457883,39.3864961],[3.2464534,39.3881831],[3.2527112,39.3919338],[3.2501271,39.3913712],[3.2475947,39.3931711],[3.2543444,39.3944058],[3.2541797,39.4036553],[3.2681859,39.4158971],[3.2589738,39.4160181],[3.2609454,39.4240152],[3.2671437,39.4278488],[3.2701111,39.4141625],[3.2748987,39.416059],[3.2769092,39.4254802],[3.2725504,39.4284746],[3.28272,39.4649368],[3.2796092,39.4666699],[3.2898537,39.4777222],[3.2864414,39.4842444],[3.2930798,39.4848023],[3.2921416,39.4941152],[3.2996728,39.4979903],[3.2960256,39.499747],[3.3016224,39.5005949],[3.3108075,39.5168648],[3.3167815,39.5177626],[3.3142562,39.5207961],[3.3403107,39.534876],[3.3359576,39.5402219],[3.3327387,39.5377153],[3.3316314,39.538496],[3.3318701,39.5404454],[3.3381093,39.5417562],[3.3382289,39.5384978],[3.3405079,39.5377414],[3.3556715,39.5464898],[3.3535862,39.5472274],[3.3531614,39.5483303],[3.3685389,39.5508884],[3.3670654,39.5561498],[3.3735976,39.5569927],[3.3730839,39.5667949],[3.3789157,39.5759403],[3.4036244,39.579164],[3.402691,39.583497],[3.3941615,39.5834722],[3.3850758,39.5917898],[3.3970705,39.6286372],[3.4094851,39.6376726],[3.4267182,39.632232],[3.4368012,39.6348481],[3.4409021,39.6563189],[3.4559386,39.6564124],[3.4524986,39.6695124],[3.4571359,39.6708001],[3.4528272,39.6744168],[3.4567816,39.6797308],[3.452205,39.6821565],[3.45798,39.6844542],[3.4533742,39.6931007],[3.4566263,39.7055064],[3.4697358,39.7129265],[3.4745452,39.7093066],[3.4787522,39.7158348],[3.4716454,39.72177],[3.4527226,39.7223726],[3.4566883,39.7280062],[3.4521704,39.7259209],[3.4527624,39.7293748],[3.461849,39.7383318],[3.4572957,39.7440985],[3.4613829,39.7480772],[3.4507453,39.7434081],[3.4324225,39.7450364],[3.4266739,39.7516716],[3.4135505,39.7523463],[3.4040728,39.7639878],[3.3847554,39.7637361],[3.3737209,39.7684164],[3.3715215,39.7745351],[3.3480254,39.789376],[3.3350167,39.7839924],[3.3319221,39.7751678],[3.3361552,39.770368],[3.3294879,39.7600239],[3.2523565,39.7293483],[3.2121985,39.7415229],[3.1458029,39.7731542],[3.1203923,39.8028498],[3.1190918,39.8290653],[3.1313344,39.840929],[3.1300753,39.8387149],[3.1331981,39.8359074],[3.133312,39.8409812],[3.1369708,39.8403557],[3.1431263,39.8341369],[3.1407002,39.831957],[3.1800844,39.8421386],[3.1971695,39.8617535],[3.1866473,39.8632996],[3.1841227,39.8707466],[3.1904734,39.8772252],[3.1882571,39.8816677],[3.2044579,39.8888658],[3.1904353,39.8924832],[3.186283,39.8844051],[3.1591576,39.8713701],[3.152438,39.8721285],[3.1480751,39.8667531],[3.1381986,39.8646073],[3.1318225,39.8692888],[3.1254075,39.8629728],[3.1160185,39.8646038],[3.106488,39.8576365],[3.0916146,39.8651052],[3.0838287,39.8753222],[3.0785135,39.8882956],[3.0800611,39.9022779],[3.0831792,39.9061039],[3.0871385,39.9025925],[3.0831681,39.9065021],[3.0914737,39.9111352],[3.1075768,39.9058374],[3.1107429,39.8992456],[3.1099825,39.9112506],[3.1274473,39.916792],[3.1314989,39.9269012],[3.1543897,39.9231413],[3.1837859,39.9377185],[3.1803497,39.9404993],[3.2021801,39.9438557],[3.2144731,39.9614982],[3.1736263,39.9516715],[3.1801549,39.9585138],[3.1776255,39.9615258],[3.1474534,39.9540873],[3.1218794,39.9319053],[3.1181429,39.9350458],[3.0976216,39.9277857],[3.0946253,39.9291145],[3.1016553,39.9350541],[3.0959998,39.9358228],[3.0807147,39.9247557],[3.0605787,39.9194166],[3.054782,39.9219024],[3.0610598,39.9324964],[3.0374543,39.9302718],[3.0419414,39.9376896],[3.0334467,39.9302167],[3.0344798,39.9344848],[3.0279955,39.9348531],[3.0014798,39.9238172],[2.9823665,39.9082821],[2.9654266,39.9103896],[2.9503386,39.9201244],[2.9362324,39.9041863],[2.920037,39.902019],[2.9176295,39.8966419],[2.8954006,39.8948796],[2.8749013,39.8779821],[2.8531893,39.8742885],[2.8450244,39.8617701],[2.8383801,39.8653005],[2.8248337,39.8566109],[2.8242619,39.8609708],[2.8154729,39.8568641],[2.8046206,39.8622849],[2.80188,39.8582812],[2.8057135,39.8525139],[2.8003311,39.8510214],[2.7923946,39.856528],[2.7867547,39.8526381],[2.7780118,39.8553396],[2.7742465,39.851095],[2.7757885,39.8398759],[2.767317,39.8430156],[2.7660775,39.8350218],[2.7556044,39.8291539],[2.7475583,39.8278039],[2.7425208,39.8328233],[2.7042866,39.8085173],[2.6994761,39.8108895],[2.6891863,39.797967],[2.6956345,39.797257],[2.6942932,39.7912247],[2.6799324,39.7985976],[2.6694633,39.792289],[2.6633225,39.7725219],[2.6412074,39.7600702],[2.6356863,39.7652177],[2.6255018,39.7524207],[2.6238973,39.7564915],[2.6199244,39.756099],[2.6227929,39.7479942],[2.5997356,39.7328796],[2.5873286,39.7171876],[2.5554665,39.6999869],[2.5277723,39.7015356],[2.5162805,39.6905606],[2.4981185,39.6845129],[2.4886413,39.6716545],[2.4818688,39.6724446],[2.4622255,39.6520271],[2.4232998,39.6385831],[2.4220007,39.629968],[2.3953074,39.6174399],[2.3686732,39.6139462],[2.355883,39.6054499],[2.3550864,39.5962955],[2.3470872,39.5948232],[2.3447252,39.5871688]]]}}]}